SL-12 R/B(2)            
1 15772U 85042D   26154.66343726  .00000110  00000+0  70829-4 0  9997
2 15772  71.1086 266.0874 0035522 348.3603 110.8497 14.22003233126610
SL-14 R/B               
1 15945U 85069B   26154.90845864  .00000482  00000+0  51617-4 0  9991
2 15945  82.5262 303.8553 0017230 266.4790  93.4456 14.86504675185646
SL-16 R/B               
1 16182U 85097B   26154.64199998  .00000186  00000+0  11710-3 0  9997
2 16182  71.0036 319.5954 0005902 138.0883 295.9848 14.16611206 99405
SL-14 R/B               
1 16496U 86006B   26155.13120735  .00000678  00000+0  69208-4 0  9996
2 16496  82.5264 178.3997 0075978 347.2925  12.6373 14.86932225162055
COSMOS 1743             
1 16719U 86034A   26154.98642417  .00046451  00000+0  45836-3 0  9992
2 16719  82.5276 342.7560 0003515 335.3214  24.7877 15.65721268193728
SL-14 R/B               
1 16792U 86046B   26155.08670762  .00000438  00000+0  47586-4 0  9992
2 16792  82.4818 358.5557 0021808 304.6785  55.2376 14.85662252139235
SL-14 R/B               
1 16882U 86055B   26155.68491582  .00000514  00000+0  56185-4 0  9999
2 16882  82.5213  44.8868 0020037  47.5573  10.1177 14.85714252132281
AJISAI (EGS)            
1 16908U 86061A   26155.69915373 -.00000094  00000+0  27206-4 0  9991
2 16908  50.0064 185.7969 0011283 148.9355 330.9212 12.44516749478839
SL-14 R/B               
1 17567U 87024B   26155.08875155  .00000466  00000+0  50204-4 0  9995
2 17567  82.5286  11.5634 0017608 339.3189  20.7312 14.86204472100966
COSMOS 1833             
1 17589U 87027A   26155.22451941  .00000258  00000+0  16347-3 0  9999
2 17589  70.9147 144.1160 0022502  76.7560 283.6069 14.13040466 22545
SL-16 R/B               
1 17590U 87027B   26155.22863734  .00000196  00000+0  12098-3 0  9998
2 17590  71.0024  94.1349 0005850 327.8198  32.2568 14.17169977 27607
SL-14 R/B               
1 17912U 87038B   26155.66697388  .00000419  00000+0  45727-4 0  9990
2 17912  82.5018 214.8649 0017958 234.3510 125.6034 14.85437745 92143
COSMOS 1844             
1 17973U 87041A   26155.23720839 -.00000042  00000+0  32059-5 0  9990
2 17973  70.8992 211.6221 0033289 254.1046 105.6406 14.14570107 15824
SL-14 R/B               
1 18153U 87055B   26154.28173471  .00000528  00000+0  57773-4 0  9991
2 18153  82.4994 268.3368 0022182  90.7225 269.6533 14.85700189 82649
COSMOS 1867             
1 18187U 87060A   26155.13908757 -.00000031  00000+0  26129-4 0  9993
2 18187  65.0113  64.6001 0016200 281.9584  77.9684 14.31514326 32316
SL-14 R/B               
1 18749U 88001B   26154.28278350  .00000522  00000+0  57508-4 0  9996
2 18749  82.5122 114.8544 0016970 319.4199  40.5751 14.85598562 54731
COSMOS 1933             
1 18958U 88020A   26155.12327308  .00003776  00000+0  18103-3 0  9992
2 18958  82.5113 165.3713 0002255 246.5845 113.5152 15.18626787 63342
SL-3 R/B                
1 19046U 88032B   26155.67587810  .00004929  00000+0  22558-3 0  9990
2 19046  97.5253 138.7307 0023785 292.1142  67.7568 15.20741362 65324
SL-16 R/B               
1 19120U 88039B   26155.64905615  .00000115  00000+0  77224-4 0  9998
2 19120  71.0151 244.6694 0022948 211.5710 148.4039 14.19628078970727
COSMOS 1953             
1 19210U 88050A   26155.26447918  .00008376  00000+0  28873-3 0  9998
2 19210  82.5084  71.0628 0011026 167.3598 192.7921 15.29790603 51015
SL-8 R/B                
1 19257U 88053B   26154.58928132  .00000307  00000+0  10792-3 0  9995
2 19257  74.0476 314.1234 0019338 114.4979 314.5681 14.38961756988958
COSMOS 1975             
1 19573U 88093A   26155.65647161  .00008882  00000+0  31233-3 0  9998
2 19573  82.5197  30.3050 0010089 216.9364 143.1182 15.29159363 32693
SL-14 R/B               
1 19574U 88093B   26155.07796931  .00000505  00000+0  55138-4 0  9990
2 19574  82.5303 320.9536 0022103 110.8783 339.8809 14.85731101 13840
SL-16 R/B               
1 19650U 88102B   26155.64424250  .00000110  00000+0  79487-4 0  9996
2 19650  71.0003 328.5314 0016191 242.0754 117.8731 14.16166251939206
INTERCOSMOS 24          
1 20261U 89080A   26155.07026382  .00001020  00000+0  29102-3 0  9992
2 20261  82.6077  48.1779 1188294  92.3150 281.4182 12.59640417677670
SL-14 R/B               
1 20262U 89080C   26154.32298116  .00000570  00000+0  16948-3 0  9999
2 20262  82.5912 118.2136 1229574 349.1174   8.5361 12.50560014670855
DELTA 1 R/B             
1 20323U 89089B   26155.11436352  .00000421  00000+0  11277-3 0  9995
2 20323  97.0639 348.7641 0068139 208.3686 151.3796 14.50722446908261
ARIANE 40 R/B           
1 20443U 90005H   26155.67575009  .00000311  00000+0  11244-3 0  9994
2 20443  98.2964 213.6802 0008970 307.3228  52.7143 14.39920756905321
DELTA 2 R/B(1)          
1 20453U 90008B   26154.88182397  .00082628  00000+0  65995-3 0  9997
2 20453  35.6007 324.5326 0068452 348.4901  11.4272 15.66729269939614
COSMOS 2058             
1 20465U 90010A   26154.96551128  .00003229  00000+0  18662-3 0  9993
2 20465  82.4665 322.3957 0010684  43.2506 316.9562 15.11924891955271
SL-14 R/B               
1 20466U 90010B   26155.08389148  .00000422  00000+0  48123-4 0  9997
2 20466  82.5020 186.2505 0020240  19.6434 340.5556 14.83637925941290
