OBJECT_NAME,OBJECT_ID,EPOCH,MEAN_MOTION,ECCENTRICITY,INCLINATION,RA_OF_ASC_NODE,ARG_OF_PERICENTER,MEAN_ANOMALY,EPHEMERIS_TYPE,CLASSIFICATION_TYPE,NORAD_CAT_ID,ELEMENT_SET_NO,REV_AT_EPOCH,BSTAR,MEAN_MOTION_DOT,MEAN_MOTION_DDOT
SL-12 R/B(2),1985-042D,2026-06-03T15:55:20.979264,14.22003233,.0035522,71.1086,266.0874,348.3603,110.8497,0,U,15772,999,12661,.70829E-4,.11E-5,0
SL-14 R/B,1985-069B,2026-06-03T21:48:10.826496,14.86504675,.00172302,82.5262,303.8553,266.4790,93.4456,0,U,15945,999,18564,.5161666E-4,.482E-5,0
SL-16 R/B,1985-097B,2026-06-03T15:24:28.798272,14.16611206,.0005902,71.0036,319.5954,138.0883,295.9848,0,U,16182,999,9940,.1171E-3,.186E-5,0
SL-14 R/B,1986-006B,2026-06-04T03:08:56.315040,14.86932225,.0075978,82.5264,178.3997,347.2925,12.6373,0,U,16496,999,16205,.69208E-4,.678E-5,0
COSMOS 1743,1986-034A,2026-06-03T23:40:27.048288,15.65721268,.00035159,82.5276,342.7560,335.3214,24.7877,0,U,16719,999,19372,.45835709E-3,.46451E-3,0
SL-14 R/B,1986-046B,2026-06-04T02:04:51.538368,14.85662252,.0021808,82.4818,358.5557,304.6785,55.2376,0,U,16792,999,13923,.47586E-4,.438E-5,0
SL-14 R/B,1986-055B,2026-06-04T16:26:16.726848,14.85714252,.0020037,82.5213,44.8868,47.5573,10.1177,0,U,16882,999,13228,.56185E-4,.514E-5,0
AJISAI (EGS),1986-061A,2026-06-04T16:46:46.882272,12.44516749,.0011283,50.0064,185.7969,148.9355,330.9212,0,U,16908,999,47883,.27206E-4,-.94E-6,0
SL-14 R/B,1987-024B,2026-06-04T02:07:48.133920,14.86204472,.0017608,82.5286,11.5634,339.3189,20.7312,0,U,17567,999,10096,.50204E-4,.466E-5,0
COSMOS 1833,1987-027A,2026-06-04T05:23:18.477024,14.13040466,.0022502,70.9147,144.1160,76.7560,283.6069,0,U,17589,999,2254,.16347E-3,.258E-5,0
SL-16 R/B,1987-027B,2026-06-04T05:29:14.266176,14.17169977,.000585,71.0024,94.1349,327.8198,32.2568,0,U,17590,999,2760,.12098E-3,.196E-5,0
SL-14 R/B,1987-038B,2026-06-04T16:00:26.543232,14.85437745,.0017958,82.5018,214.8649,234.3510,125.6034,0,U,17912,999,9214,.45727E-4,.419E-5,0
COSMOS 1844,1987-041A,2026-06-04T05:41:34.804896,14.14570107,.0033289,70.8992,211.6221,254.1046,105.6406,0,U,17973,999,1582,.32059E-5,-.42E-6,0
SL-14 R/B,1987-055B,2026-06-03T06:45:41.878944,14.85700189,.00221821,82.4994,268.3368,90.7225,269.6533,0,U,18153,999,8264,.57772618E-4,.528E-5,0
COSMOS 1867,1987-060A,2026-06-04T03:20:17.166048,14.31514326,.00162,65.0113,64.6001,281.9584,77.9684,0,U,18187,999,3231,.26129E-4,-.31E-6,0
SL-14 R/B,1988-001B,2026-06-03T06:47:12.494400,14.85598562,.00169705,82.5122,114.8544,319.4199,40.5751,0,U,18749,999,5473,.57507607E-4,.522E-5,0
COSMOS 1933,1988-020A,2026-06-04T02:57:30.794112,15.18626787,.0002255,82.5113,165.3713,246.5845,113.5152,0,U,18958,999,6334,.18103E-3,.3776E-4,0
SL-3 R/B,1988-032B,2026-06-04T16:13:15.867840,15.20741362,.0023785,97.5253,138.7307,292.1142,67.7568,0,U,19046,999,6532,.22558E-3,.4929E-4,0
SL-16 R/B,1988-039B,2026-06-04T15:34:38.451360,14.19628078,.0022948,71.0151,244.6694,211.5710,148.4039,0,U,19120,999,97072,.77224E-4,.115E-5,0
COSMOS 1953,1988-050A,2026-06-04T06:20:51.001152,15.29790603,.0011026,82.5084,71.0628,167.3598,192.7921,0,U,19210,999,5101,.28873E-3,.8376E-4,0
SL-8 R/B,1988-053B,2026-06-03T14:08:33.906048,14.38961756,.00193388,74.0476,314.1234,114.4979,314.5681,0,U,19257,999,98895,.10792196E-3,.307E-5,0
COSMOS 1975,1988-093A,2026-06-04T15:45:19.147104,15.29159363,.0010089,82.5197,30.3050,216.9364,143.1182,0,U,19573,999,3269,.31233E-3,.8882E-4,0
SL-14 R/B,1988-093B,2026-06-04T01:52:16.548384,14.85731101,.00221038,82.5303,320.9536,110.8783,339.8809,0,U,19574,999,1384,.55138359E-4,.505E-5,0
SL-16 R/B,1988-102B,2026-06-04T15:27:42.552000,14.16166251,.0016191,71.0003,328.5314,242.0754,117.8731,0,U,19650,999,93920,.79487E-4,.11E-5,0
INTERCOSMOS 24,1989-080A,2026-06-04T01:41:10.794048,12.59640417,.1188294,82.6077,48.1779,92.3150,281.4182,0,U,20261,999,67767,.29101678E-3,.102E-4,0
SL-14 R/B,1989-080C,2026-06-03T07:45:05.572224,12.50560014,.12295748,82.5912,118.2136,349.1174,8.5361,0,U,20262,999,67085,.16948173E-3,.57E-5,0
DELTA 1 R/B,1989-089B,2026-06-04T02:44:41.008128,14.50722446,.00681394,97.0639,348.7641,208.3686,151.3796,0,U,20323,999,90826,.11276986E-3,.421E-5,0
ARIANE 40 R/B,1990-005H,2026-06-04T16:13:04.807776,14.39920756,.000897,98.2964,213.6802,307.3228,52.7143,0,U,20443,999,90532,.11244E-3,.311E-5,0
DELTA 2 R/B(1),1990-008B,2026-06-03T21:09:49.591008,15.66729269,.0068452,35.6007,324.5326,348.4901,11.4272,0,U,20453,999,93961,.65995E-3,.82628E-3,0
COSMOS 2058,1990-010A,2026-06-03T23:10:20.174592,15.11924891,.00106848,82.4665,322.3957,43.2506,316.9562,0,U,20465,999,95527,.18661784E-3,.3229E-4,0
SL-14 R/B,1990-010B,2026-06-04T02:00:48.223872,14.83637925,.00202402,82.5020,186.2505,19.6434,340.5556,0,U,20466,999,94129,.48122998E-4,.422E-5,0
